start=new Date('2022-12-29T00:00:00.000Z').valueOf();
sats=[{"NORAD_CAT_ID":"48380","PERIOD":"95.592","OBJECT_TYPE":"PAYLOAD","OBJECT_NAME":"STARLINK-2614","RCS_SIZE":"LARGE","INCLINATION":"53.0535","MEAN_MOTION_DDOT":"0.0000000000000","REV_AT_EPOCH":"9126","MEAN_ELEMENT_THEORY":"SGP4","DECAY_DATE":null,"MEAN_MOTION":"15.06398568","REF_FRAME":"TEME","FILE":"3725038","SEMIMAJOR_AXIS":"6925.353","LAUNCH_DATE":"2021-05-04","ECCENTRICITY":"0.00013270","ELEMENT_SET_NO":"999","OBJECT_ID":"2021-038AD","TLE_LINE2":"2 48380  53.0535 190.6765 0001327  85.9593 274.1548 15.06398568 91262","TIME_SYSTEM":"UTC","MEAN_MOTION_DOT":"0.00001547","RA_OF_ASC_NODE":"190.6765","ARG_OF_PERICENTER":"85.9593","CLASSIFICATION_TYPE":"U","BSTAR":"0.00012276000000","APOAPSIS":"548.137","MEAN_ANOMALY":"274.1548","CENTER_NAME":"EARTH","EPHEMERIS_TYPE":"0","COUNTRY_CODE":"US","SITE":"AFETR","GP_ID":"221694747","PERIAPSIS":"546.299","EPOCH":"2022-12-28T15:33:54.503136","TLE_LINE1":"1 48380U 21038AD  22362.64854749  .00001547  00000-0  12276-3 0  9997"},{"PERIOD":"95.592","NORAD_CAT_ID":"48381","RCS_SIZE":"LARGE","OBJECT_NAME":"STARLINK-2630","OBJECT_TYPE":"PAYLOAD","MEAN_MOTION":"15.06398008","DECAY_DATE":null,"MEAN_ELEMENT_THEORY":"SGP4","REV_AT_EPOCH":"9127","MEAN_MOTION_DDOT":"0.0000000000000","INCLINATION":"53.0542","OBJECT_ID":"2021-038AE","ELEMENT_SET_NO":"999","ECCENTRICITY":"0.00014310","LAUNCH_DATE":"2021-05-04","SEMIMAJOR_AXIS":"6925.355","FILE":"3725038","REF_FRAME":"TEME","MEAN_MOTION_DOT":"0.00001332","TIME_SYSTEM":"UTC","TLE_LINE2":"2 48381  53.0542 190.5127 0001431  81.0205 279.0946 15.06398008 91271","BSTAR":"0.00010828000000","CLASSIFICATION_TYPE":"U","ARG_OF_PERICENTER":"81.0205","RA_OF_ASC_NODE":"190.5127","COUNTRY_CODE":"US","SITE":"AFETR","EPHEMERIS_TYPE":"0","CENTER_NAME":"EARTH","MEAN_ANOMALY":"279.0946","APOAPSIS":"548.211","TLE_LINE1":"1 48381U 21038AE  22362.68634324  .00001332  00000-0  10828-3 0  9990","PERIAPSIS":"546.229","EPOCH":"2022-12-28T16:28:20.055936","GP_ID":"221694989"},{"TLE_LINE1":"1 48382U 21038AF  22362.68265851  .00001378  00000-0  11138-3 0  9991","EPOCH":"2022-12-28T16:23:01.695264","PERIAPSIS":"546.171","GP_ID":"221693248","EPHEMERIS_TYPE":"0","SITE":"AFETR","COUNTRY_CODE":"US","CENTER_NAME":"EARTH","APOAPSIS":"548.226","MEAN_ANOMALY":"271.9608","BSTAR":"0.00011138000000","CLASSIFICATION_TYPE":"U","ARG_OF_PERICENTER":"88.1551","RA_OF_ASC_NODE":"190.5160","MEAN_MOTION_DOT":"0.00001378","TLE_LINE2":"2 48382  53.0521 190.5160 0001484  88.1551 271.9608 15.06404875 91272","TIME_SYSTEM":"UTC","OBJECT_ID":"2021-038AF","ELEMENT_SET_NO":"999","SEMIMAJOR_AXIS":"6925.334","LAUNCH_DATE":"2021-05-04","ECCENTRICITY":"0.00014840","REF_FRAME":"TEME","FILE":"3725038","MEAN_MOTION":"15.06404875","REV_AT_EPOCH":"9127","MEAN_ELEMENT_THEORY":"SGP4","DECAY_DATE":null,"INCLINATION":"53.0521","MEAN_MOTION_DDOT":"0.0000000000000","RCS_SIZE":"LARGE","OBJECT_NAME":"STARLINK-2585","OBJECT_TYPE":"PAYLOAD","PERIOD":"95.592","NORAD_CAT_ID":"48382"},{"RA_OF_ASC_NODE":"190.5421","CLASSIFICATION_TYPE":"U","BSTAR":"0.00011659000000","ARG_OF_PERICENTER":"82.5625","TIME_SYSTEM":"UTC","TLE_LINE2":"2 48383  53.0529 190.5421 0001393  82.5625 277.5522 15.06398746 92491","MEAN_MOTION_DOT":"0.00001455","GP_ID":"221693996","TLE_LINE1":"1 48383U 21038AG  22362.67897190  .00001455  00000-0  11659-3 0  9992","EPOCH":"2022-12-28T16:17:43.172160","PERIAPSIS":"546.253","MEAN_ANOMALY":"277.5522","APOAPSIS":"548.182","COUNTRY_CODE":"US","SITE":"AFETR","EPHEMERIS_TYPE":"0","CENTER_NAME":"EARTH","OBJECT_NAME":"STARLINK-2599","OBJECT_TYPE":"PAYLOAD","RCS_SIZE":"LARGE","NORAD_CAT_ID":"48383","PERIOD":"95.592","ECCENTRICITY":"0.00013930","SEMIMAJOR_AXIS":"6925.352","LAUNCH_DATE":"2021-05-04","FILE":"3725038","REF_FRAME":"TEME","OBJECT_ID":"2021-038AG","ELEMENT_SET_NO":"999","MEAN_MOTION_DDOT":"0.0000000000000","INCLINATION":"53.0529","MEAN_MOTION":"15.06398746","DECAY_DATE":null,"MEAN_ELEMENT_THEORY":"SGP4","REV_AT_EPOCH":"9249"},{"MEAN_MOTION_DOT":"0.00000303","TIME_SYSTEM":"UTC","TLE_LINE2":"2 48384  53.0517 190.2602 0001576  67.2286 292.8870 15.06398082 92504","BSTAR":"0.00003923800000","CLASSIFICATION_TYPE":"U","ARG_OF_PERICENTER":"67.2286","RA_OF_ASC_NODE":"190.2602","SITE":"AFETR","COUNTRY_CODE":"US","EPHEMERIS_TYPE":"0","CENTER_NAME":"EARTH","MEAN_ANOMALY":"292.8870","APOAPSIS":"548.311","TLE_LINE1":"1 48384U 21038AH  22362.74163410  .00000303  00000-0  39238-4 0  9997","PERIAPSIS":"546.128","EPOCH":"2022-12-28T17:47:57.186240","GP_ID":"221694248","PERIOD":"95.592","NORAD_CAT_ID":"48384","RCS_SIZE":"LARGE","OBJECT_NAME":"STARLINK-2601","OBJECT_TYPE":"PAYLOAD","MEAN_MOTION":"15.06398082","DECAY_DATE":null,"MEAN_ELEMENT_THEORY":"SGP4","REV_AT_EPOCH":"9250","INCLINATION":"53.0517","MEAN_MOTION_DDOT":"0.0000000000000","OBJECT_ID":"2021-038AH","ELEMENT_SET_NO":"999","ECCENTRICITY":"0.00015760","LAUNCH_DATE":"2021-05-04","SEMIMAJOR_AXIS":"6925.354","FILE":"3725038","REF_FRAME":"TEME"},{"SITE":"AFETR","COUNTRY_CODE":"US","EPHEMERIS_TYPE":"0","CENTER_NAME":"EARTH","MEAN_ANOMALY":"278.0909","APOAPSIS":"548.137","TLE_LINE1":"1 48385U 21038AJ  22362.73794783  .00000655  00000-0  62882-4 0  9991","EPOCH":"2022-12-28T17:42:38.692512","PERIAPSIS":"546.316","GP_ID":"221694490","MEAN_MOTION_DOT":"0.00000655","TIME_SYSTEM":"UTC","TLE_LINE2":"2 48385  53.0531 190.2772 0001315  82.0229 278.0909 15.06395761 92502","BSTAR":"0.00006288200000","CLASSIFICATION_TYPE":"U","ARG_OF_PERICENTER":"82.0229","RA_OF_ASC_NODE":"190.2772","MEAN_MOTION":"15.06395761","DECAY_DATE":null,"MEAN_ELEMENT_THEORY":"SGP4","REV_AT_EPOCH":"9250","INCLINATION":"53.0531","MEAN_MOTION_DDOT":"0.0000000000000","OBJECT_ID":"2021-038AJ","ELEMENT_SET_NO":"999","ECCENTRICITY":"0.00013150","SEMIMAJOR_AXIS":"6925.362","LAUNCH_DATE":"2021-05-04","FILE":"3725038","REF_FRAME":"TEME","PERIOD":"95.592","NORAD_CAT_ID":"48385","RCS_SIZE":"LARGE","OBJECT_NAME":"STARLINK-2598","OBJECT_TYPE":"PAYLOAD"},{"GP_ID":"221663076","PERIAPSIS":"546.116","EPOCH":"2022-12-28T12:38:07.623168","TLE_LINE1":"1 48386U 21038AK  22362.52647712  .00001989  00000-0  15236-3 0  9999","MEAN_ANOMALY":"271.4758","APOAPSIS":"548.274","CENTER_NAME":"EARTH","COUNTRY_CODE":"US","SITE":"AFETR","EPHEMERIS_TYPE":"0","RA_OF_ASC_NODE":"186.2404","ARG_OF_PERICENTER":"88.6410","CLASSIFICATION_TYPE":"U","BSTAR":"0.00015236000000","TIME_SYSTEM":"UTC","TLE_LINE2":"2 48386  53.0536 186.2404 0001558  88.6410 271.4758 15.06406059 91318","MEAN_MOTION_DOT":"0.00001989","FILE":"3724805","REF_FRAME":"TEME","ECCENTRICITY":"0.00015580","SEMIMAJOR_AXIS":"6925.330","LAUNCH_DATE":"2021-05-04","ELEMENT_SET_NO":"999","OBJECT_ID":"2021-038AK","INCLINATION":"53.0536","MEAN_MOTION_DDOT":"0.0000000000000","MEAN_ELEMENT_THEORY":"SGP4","DECAY_DATE":null,"REV_AT_EPOCH":"9131","MEAN_MOTION":"15.06406059","OBJECT_TYPE":"PAYLOAD","OBJECT_NAME":"STARLINK-2606","RCS_SIZE":"LARGE","NORAD_CAT_ID":"48386","PERIOD":"95.592"},{"ECCENTRICITY":"0.00018520","SEMIMAJOR_AXIS":"6925.332","LAUNCH_DATE":"2021-05-04","FILE":"3724149","REF_FRAME":"TEME","OBJECT_ID":"2021-038AL","ELEMENT_SET_NO":"999","INCLINATION":"53.0529","MEAN_MOTION_DDOT":"0.0000000000000","MEAN_MOTION":"15.06405508","DECAY_DATE":null,"MEAN_ELEMENT_THEORY":"SGP4","REV_AT_EPOCH":"9121","OBJECT_NAME":"STARLINK-2600","OBJECT_TYPE":"PAYLOAD","RCS_SIZE":"MEDIUM","NORAD_CAT_ID":"48387","PERIOD":"95.592","GP_ID":"221622135","TLE_LINE1":"1 48387U 21038AL  22361.82612731  .00001749  00000-0  13629-3 0  9993","PERIAPSIS":"545.914","EPOCH":"2022-12-27T19:49:37.399584","MEAN_ANOMALY":"294.5250","APOAPSIS":"548.479","SITE":"AFETR","COUNTRY_CODE":"US","EPHEMERIS_TYPE":"0","CENTER_NAME":"EARTH","RA_OF_ASC_NODE":"189.3435","CLASSIFICATION_TYPE":"U","BSTAR":"0.00013629000000","ARG_OF_PERICENTER":"65.5932","TIME_SYSTEM":"UTC","TLE_LINE2":"2 48387  53.0529 189.3435 0001852  65.5932 294.5250 15.06405508 91219","MEAN_MOTION_DOT":"0.00001749"},{"MEAN_MOTION_DOT":"0.00001508","TLE_LINE2":"2 48388  53.0536 185.8136 0001302  73.3584 286.7548 15.06394848 91337","TIME_SYSTEM":"UTC","ARG_OF_PERICENTER":"73.3584","CLASSIFICATION_TYPE":"U","BSTAR":"0.00012012000000","RA_OF_ASC_NODE":"185.8136","CENTER_NAME":"EARTH","EPHEMERIS_TYPE":"0","COUNTRY_CODE":"US","SITE":"AFETR","APOAPSIS":"548.131","MEAN_ANOMALY":"286.7548","PERIAPSIS":"546.328","EPOCH":"2022-12-28T14:50:48.620256","TLE_LINE1":"1 48388U 21038AM  22362.61861829  .00001508  00000-0  12012-3 0  9994","GP_ID":"221694748","PERIOD":"95.592","NORAD_CAT_ID":"48388","RCS_SIZE":"LARGE","OBJECT_TYPE":"PAYLOAD","OBJECT_NAME":"STARLINK-2594","REV_AT_EPOCH":"9133","MEAN_ELEMENT_THEORY":"SGP4","DECAY_DATE":null,"MEAN_MOTION":"15.06394848","MEAN_MOTION_DDOT":"0.0000000000000","INCLINATION":"53.0536","ELEMENT_SET_NO":"999","OBJECT_ID":"2021-038AM","REF_FRAME":"TEME","FILE":"3725038","LAUNCH_DATE":"2021-05-04","SEMIMAJOR_AXIS":"6925.364","ECCENTRICITY":"0.00013020"},{"BSTAR":"0.00002552000000","CLASSIFICATION_TYPE":"U","ARG_OF_PERICENTER":"106.9761","RA_OF_ASC_NODE":"180.8610","MEAN_MOTION_DOT":"0.00000099","TIME_SYSTEM":"UTC","TLE_LINE2":"2 48389  53.0522 180.8610 0001538 106.9761 253.1397 15.06394081 91391","TLE_LINE1":"1 48389U 21038AN  22362.60523424  .00000099  00000-0  25520-4 0  9993","EPOCH":"2022-12-28T14:31:32.238336","PERIAPSIS":"546.167","GP_ID":"221694990","COUNTRY_CODE":"US","SITE":"AFETR","EPHEMERIS_TYPE":"0","CENTER_NAME":"EARTH","MEAN_ANOMALY":"253.1397","APOAPSIS":"548.297","RCS_SIZE":"LARGE","OBJECT_NAME":"STARLINK-1904","OBJECT_TYPE":"PAYLOAD","PERIOD":"95.593","NORAD_CAT_ID":"48389","OBJECT_ID":"2021-038AN","ELEMENT_SET_NO":"999","ECCENTRICITY":"0.00015380","LAUNCH_DATE":"2021-05-04","SEMIMAJOR_AXIS":"6925.367","FILE":"3725038","REF_FRAME":"TEME","MEAN_MOTION":"15.06394081","MEAN_ELEMENT_THEORY":"SGP4","DECAY_DATE":null,"REV_AT_EPOCH":"9139","MEAN_MOTION_DDOT":"0.0000000000000","INCLINATION":"53.0522"}];
